*******************************************************************************
Ephemeris / WWW_USER Mon Jul 15 19:19:22 2024 Pasadena, USA      / Horizons    
*******************************************************************************
Target body name: (2018 YU2)                      {source: JPL#5}
Center body name: Earth (399)                     {source: DE441}
Center-site name: Gemini South Obs., Cerro Pachon
*******************************************************************************
Start time      : A.D. 2018-Oct-10 22:58:00.0000 UT      
Stop  time      : A.D. 2018-Oct-11 10:01:00.0000 UT      
Step-size       : 1 minutes
*******************************************************************************
Target pole/equ : undefined
Target radii    : undefined                                                    
Center geodetic : 289.2634, -30.2406227, 2.71233  {E-lon(deg),Lat(deg),Alt(km)}
Center cylindric: 289.2634,5517.21435,-3194.81213 {E-lon(deg),Dxy(km),Dz(km)}
Center pole/equ : ITRF93                          {East-longitude positive}
Center radii    : 6378.137, 6378.137, 6356.752 km {Equator_a, b, pole_c}       
Target primary  : Sun
Vis. interferer : MOON (R_eq= 1737.400) km        {source: DE441}
Rel. light bend : Sun                             {source: DE441}
Rel. lght bnd GM: 1.3271E+11 km^3/s^2                                          
Small-body perts: Yes                             {source: SB441-N16}
Atmos refraction: NO (AIRLESS)
RA format       : HMS
Time format     : CAL 
Calendar mode   : Mixed Julian/Gregorian
RTS-only print  : NO       
EOP file        : eop.240715.p241008                                           
EOP coverage    : DATA-BASED 1962-JAN-20 TO 2024-JUL-15. PREDICTS-> 2024-OCT-07
Units conversion: 1 au= 149597870.700 km, c= 299792.458 km/s, 1 day= 86400.0 s 
Table cut-offs 1: Elevation (-90.0deg=NO ),Airmass (>38.000=NO), Daylight (YES)
Table cut-offs 2: Solar elongation (  0.0,180.0=NO ),Local Hour Angle( 0.0=NO )
Table cut-offs 3: RA/DEC angular rate (     0.0=NO )                           
*******************************************************************************
Initial IAU76/J2000 heliocentric ecliptic osculating elements (au, days, deg.):
  EPOCH=  2458477.5 ! 2018-Dec-25.00 (TDB)         Residual RMS= .22887        
   EC= .1533598773405833   QR= .920984914841031    TP= 2458549.1486254167      
   OM= 279.4515303175068   W=  253.4059234937716   IN= 2.850769624588425       
  Equivalent ICRF heliocentric cartesian coordinates (au, au/d):
   X=-6.842297687009524E-02  Y= 9.429126817220428E-01  Z= 4.143187104036840E-01
  VX=-1.695115058702848E-02 VY=-2.997207899955317E-03 VZ=-2.239432528215744E-03
Asteroid physical parameters (km, seconds, rotational period in hours):        
   GM= n.a.                RAD= n.a.               ROTPER= n.a.                
   H= 26.5                 G= .150                 B-V= n.a.                   
                           ALBEDO= n.a.            STYP= n.a.                  
*******************************************************************************
 Date__(UT)__HR:MN     R.A._________(ICRF)_________DEC
******************************************************
$$SOE
 2018-Oct-10 22:58 Cm  05 19 48.517470 +31 45 08.63559
 2018-Oct-10 22:59 Cm  05 19 48.620825 +31 45 08.92697
 2018-Oct-10 23:00 Cm  05 19 48.724163 +31 45 09.21851
 2018-Oct-10 23:01 Cm  05 19 48.827483 +31 45 09.51023
 2018-Oct-10 23:02 Cm  05 19 48.930786 +31 45 09.80212
 2018-Oct-10 23:03 Cm  05 19 49.034072 +31 45 10.09417
 2018-Oct-10 23:04 Cm  05 19 49.137340 +31 45 10.38640
 2018-Oct-10 23:05 Cm  05 19 49.240590 +31 45 10.67879
 2018-Oct-10 23:06 Cm  05 19 49.343822 +31 45 10.97135
 2018-Oct-10 23:07 Cm  05 19 49.447037 +31 45 11.26408
 2018-Oct-10 23:08 Cm  05 19 49.550233 +31 45 11.55698
 2018-Oct-10 23:09 Cm  05 19 49.653411 +31 45 11.85004
 2018-Oct-10 23:10 Cm  05 19 49.756570 +31 45 12.14327
 2018-Oct-10 23:11 Cm  05 19 49.859711 +31 45 12.43666
 2018-Oct-10 23:12 Cm  05 19 49.962834 +31 45 12.73022
 2018-Oct-10 23:13 Cm  05 19 50.065938 +31 45 13.02394
 2018-Oct-10 23:14 Cm  05 19 50.169023 +31 45 13.31783
 2018-Oct-10 23:15 Nm  05 19 50.272089 +31 45 13.61188
 2018-Oct-10 23:16 Nm  05 19 50.375137 +31 45 13.90609
 2018-Oct-10 23:17 Nm  05 19 50.478165 +31 45 14.20047
 2018-Oct-10 23:18 Nm  05 19 50.581174 +31 45 14.49500
 2018-Oct-10 23:19 Nm  05 19 50.684164 +31 45 14.78970
 2018-Oct-10 23:20 Nm  05 19 50.787134 +31 45 15.08456
 2018-Oct-10 23:21 Nm  05 19 50.890085 +31 45 15.37958
 2018-Oct-10 23:22 Nm  05 19 50.993016 +31 45 15.67475
 2018-Oct-10 23:23 Nm  05 19 51.095927 +31 45 15.97009
 2018-Oct-10 23:24 Nm  05 19 51.198819 +31 45 16.26558
 2018-Oct-10 23:25 Nm  05 19 51.301690 +31 45 16.56124
 2018-Oct-10 23:26 Nm  05 19 51.404542 +31 45 16.85704
 2018-Oct-10 23:27 Nm  05 19 51.507373 +31 45 17.15301
 2018-Oct-10 23:28 Nm  05 19 51.610184 +31 45 17.44913
 2018-Oct-10 23:29 Nm  05 19 51.712975 +31 45 17.74541
 2018-Oct-10 23:30 Nm  05 19 51.815745 +31 45 18.04184
 2018-Oct-10 23:31 Nm  05 19 51.918494 +31 45 18.33842
 2018-Oct-10 23:32 Nm  05 19 52.021223 +31 45 18.63516
 2018-Oct-10 23:33 Nm  05 19 52.123932 +31 45 18.93205
 2018-Oct-10 23:34 Nm  05 19 52.226619 +31 45 19.22909
 2018-Oct-10 23:35 Nm  05 19 52.329285 +31 45 19.52629
 2018-Oct-10 23:36 Nm  05 19 52.431930 +31 45 19.82364
 2018-Oct-10 23:37 Nm  05 19 52.534554 +31 45 20.12113
 2018-Oct-10 23:38 Nm  05 19 52.637157 +31 45 20.41878
 2018-Oct-10 23:39 Nm  05 19 52.739738 +31 45 20.71658
 2018-Oct-10 23:40 Nm  05 19 52.842298 +31 45 21.01452
 2018-Oct-10 23:41 Nm  05 19 52.944836 +31 45 21.31261
 2018-Oct-10 23:42 Nm  05 19 53.047353 +31 45 21.61085
 2018-Oct-10 23:43 Am  05 19 53.149848 +31 45 21.90924
 2018-Oct-10 23:44 Am  05 19 53.252321 +31 45 22.20777
 2018-Oct-10 23:45 Am  05 19 53.354772 +31 45 22.50645
 2018-Oct-10 23:46 Am  05 19 53.457200 +31 45 22.80527
 2018-Oct-10 23:47 Am  05 19 53.559607 +31 45 23.10424
 2018-Oct-10 23:48 Am  05 19 53.661991 +31 45 23.40335
 2018-Oct-10 23:49 Am  05 19 53.764353 +31 45 23.70261
 2018-Oct-10 23:50 Am  05 19 53.866693 +31 45 24.00200
 2018-Oct-10 23:51 Am  05 19 53.969010 +31 45 24.30154
 2018-Oct-10 23:52 Am  05 19 54.071304 +31 45 24.60122
 2018-Oct-10 23:53 Am  05 19 54.173576 +31 45 24.90104
 2018-Oct-10 23:54 Am  05 19 54.275825 +31 45 25.20100
 2018-Oct-10 23:55 Am  05 19 54.378050 +31 45 25.50109
 2018-Oct-10 23:56 Am  05 19 54.480253 +31 45 25.80133
 2018-Oct-10 23:57 Am  05 19 54.582433 +31 45 26.10170
 2018-Oct-10 23:58 Am  05 19 54.684589 +31 45 26.40221
 2018-Oct-10 23:59 Am  05 19 54.786722 +31 45 26.70286
 2018-Oct-11 00:00 Am  05 19 54.888832 +31 45 27.00364
 2018-Oct-11 00:01 Am  05 19 54.990918 +31 45 27.30456
 2018-Oct-11 00:02 Am  05 19 55.092981 +31 45 27.60561
 2018-Oct-11 00:03 Am  05 19 55.195020 +31 45 27.90680
 2018-Oct-11 00:04 Am  05 19 55.297035 +31 45 28.20811
 2018-Oct-11 00:05 Am  05 19 55.399026 +31 45 28.50956
 2018-Oct-11 00:06 Am  05 19 55.500994 +31 45 28.81115
 2018-Oct-11 00:07 Am  05 19 55.602937 +31 45 29.11286
 2018-Oct-11 00:08 Am  05 19 55.704856 +31 45 29.41470
 2018-Oct-11 00:09 Am  05 19 55.806752 +31 45 29.71667
 2018-Oct-11 00:10 Am  05 19 55.908622 +31 45 30.01877
 2018-Oct-11 00:11 Am  05 19 56.010469 +31 45 30.32100
 2018-Oct-11 00:12  m  05 19 56.112291 +31 45 30.62336
 2018-Oct-11 00:13  m  05 19 56.214088 +31 45 30.92584
 2018-Oct-11 00:14  m  05 19 56.315861 +31 45 31.22845
 2018-Oct-11 00:15  m  05 19 56.417609 +31 45 31.53118
 2018-Oct-11 00:16  m  05 19 56.519332 +31 45 31.83404
 2018-Oct-11 00:17  m  05 19 56.621031 +31 45 32.13702
 2018-Oct-11 00:18  m  05 19 56.722704 +31 45 32.44013
 2018-Oct-11 00:19  m  05 19 56.824353 +31 45 32.74335
 2018-Oct-11 00:20  m  05 19 56.925976 +31 45 33.04670
 2018-Oct-11 00:21  m  05 19 57.027574 +31 45 33.35017
 2018-Oct-11 00:22  m  05 19 57.129147 +31 45 33.65376
 2018-Oct-11 00:23  m  05 19 57.230694 +31 45 33.95747
 2018-Oct-11 00:24  m  05 19 57.332216 +31 45 34.26130
 2018-Oct-11 00:25  m  05 19 57.433712 +31 45 34.56524
 2018-Oct-11 00:26  m  05 19 57.535183 +31 45 34.86930
 2018-Oct-11 00:27  m  05 19 57.636628 +31 45 35.17348
 2018-Oct-11 00:28  m  05 19 57.738047 +31 45 35.47778
 2018-Oct-11 00:29  m  05 19 57.839441 +31 45 35.78219
 2018-Oct-11 00:30  m  05 19 57.940808 +31 45 36.08671
 2018-Oct-11 00:31  m  05 19 58.042150 +31 45 36.39135
 2018-Oct-11 00:32  m  05 19 58.143465 +31 45 36.69610
 2018-Oct-11 00:33  m  05 19 58.244755 +31 45 37.00096
 2018-Oct-11 00:34  m  05 19 58.346018 +31 45 37.30593
 2018-Oct-11 00:35  m  05 19 58.447255 +31 45 37.61101
 2018-Oct-11 00:36  m  05 19 58.548465 +31 45 37.91620
 2018-Oct-11 00:37  m  05 19 58.649649 +31 45 38.22151
 2018-Oct-11 00:38  m  05 19 58.750806 +31 45 38.52692
 2018-Oct-11 00:39  m  05 19 58.851937 +31 45 38.83243
 2018-Oct-11 00:40  m  05 19 58.953041 +31 45 39.13805
 2018-Oct-11 00:41     05 19 59.054118 +31 45 39.44378
 2018-Oct-11 00:42     05 19 59.155169 +31 45 39.74962
 2018-Oct-11 00:43     05 19 59.256193 +31 45 40.05555
 2018-Oct-11 00:44     05 19 59.357189 +31 45 40.36160
 2018-Oct-11 00:45     05 19 59.458159 +31 45 40.66774
 2018-Oct-11 00:46     05 19 59.559102 +31 45 40.97399
 2018-Oct-11 00:47     05 19 59.660017 +31 45 41.28033
 2018-Oct-11 00:48     05 19 59.760905 +31 45 41.58678
 2018-Oct-11 00:49     05 19 59.861766 +31 45 41.89333
 2018-Oct-11 00:50     05 19 59.962600 +31 45 42.19997
 2018-Oct-11 00:51     05 20 00.063406 +31 45 42.50671
 2018-Oct-11 00:52     05 20 00.164184 +31 45 42.81355
 2018-Oct-11 00:53     05 20 00.264935 +31 45 43.12049
 2018-Oct-11 00:54     05 20 00.365658 +31 45 43.42752
 2018-Oct-11 00:55     05 20 00.466354 +31 45 43.73465
 2018-Oct-11 00:56     05 20 00.567022 +31 45 44.04187
 2018-Oct-11 00:57     05 20 00.667662 +31 45 44.34918
 2018-Oct-11 00:58     05 20 00.768274 +31 45 44.65659
 2018-Oct-11 00:59     05 20 00.868858 +31 45 44.96408
 2018-Oct-11 01:00     05 20 00.969415 +31 45 45.27167
